{
  "norad_id": 68600,
  "name": "KUIPER-00317",
  "history": [
    {
      "epoch": "2026-04-09T12:08:05.771904Z",
      "apogee_km": 462.01197652205974,
      "perigee_km": 450.10680640812734,
      "latitude_deg": -3.863343761690609e-06,
      "longitude_deg": 129.3315997702738,
      "height_km": 460.2234668466535,
      "semi_major_axis_km": 6834.196391465093,
      "eccentricity": 0.000871,
      "inclination_deg": 51.868,
      "raan_deg": 149.1085,
      "arg_perigee_deg": 124.9968,
      "mean_anomaly_deg": 235.1837,
      "mean_motion_rev_day": 15.36638039
    }
  ]
}