KUIPER-00317            
1 68600U 26072AD  26099.50562236  .00023615  00000+0  65793-3 0  9991
2 68600  51.8680 149.1085 0008710 124.9968 235.1837 15.36638039   815
